1998-067XU              
1 66908U 98067XU  25344.66485337  .00087912  00000+0  14714-2 0  9994
2 66908  51.6304 152.6848 0004812 213.5482 146.5203 15.51115637  1292
SILVERSAT               
1 66909U 98067XV  25344.72904365  .00091869  00000+0  15306-2 0  9993
2 66909  51.6307 152.3636 0004668 216.2554 143.8119 15.51224506  1301
1998-067XW              
1 66910U 98067XW  25344.47007597  .00083191  00000+0  13818-2 0  9993
2 66910  51.6299 153.6351 0005541 197.1967 162.8836 15.51350337  1261
1998-067XX              
1 66911U 98067XX  25345.17815372  .00098261  00000+0  16096-2 0  9995
2 66911  51.6299 150.1129 0005192 201.0739 159.0037 15.51664190  1368
1998-067XY              
1 66912U 98067XY  25344.73012555  .00067697  00000+0  11490-2 0  9991
2 66912  51.6309 152.3712 0004791 213.0974 146.9716 15.50838333  1293
2025-284A               
1 66913U 25284A   25345.21361947  .00015934  00000+0  76013-3 0  9999
2 66913  80.4047 131.6993 0012010 209.2547 150.8009 15.18919324   898
2025-284B               
1 66914U 25284B   25345.21317606  .00015357  00000+0  73440-3 0  9993
2 66914  80.4056 131.7006 0008259 251.8131 108.2198 15.18871742   894
HULIANWANG DIGUI-105    
1 66915U 25285A   25345.20864899  .00000179  00000+0  20268-3 0  9991
2 66915  50.0035 123.5166 0008125 277.5008  82.4974 14.05467524   698
HULIANWANG DIGUI-106    
1 66916U 25285B   25345.20848287  .00000165  00000+0  19384-3 0  9997
2 66916  50.0046 123.5170 0006960 272.2639  87.7469 14.05513814   694
HULIANWANG DIGUI-107    
1 66917U 25285C   25345.20823936  .00000170  00000+0  19675-3 0  9991
2 66917  50.0009 123.5125 0007571 279.8924  80.1127 14.05579308   691
HULIANWANG DIGUI-108    
1 66918U 25285D   25345.20782089  .00000172  00000+0  19782-3 0  9996
2 66918  50.0043 123.5120 0006468 275.1488  84.8679 14.05704466   691
HULIANWANG DIGUI-109    
1 66919U 25285E   25345.20776244 -.00000155  00000+0 -16698-5 0  9991
2 66919  50.0054 123.5150 0007833 286.8271  73.1775 14.05715181   697
