CCSDS_OMM_VERS = 2.0
CREATION_DATE  = 
ORIGINATOR     = 

OBJECT_NAME    = 1998-067XU
OBJECT_ID      = 1998-067XU
CENTER_NAME    = EARTH
REF_FRAME      = TEME
TIME_SYSTEM    = UTC
MEAN_ELEMENT_THEORY = SGP/SGP4

EPOCH          = 2025-12-10T15:57:23.331168
MEAN_MOTION    = 15.51115637
ECCENTRICITY   = .00048129
INCLINATION    = 51.6304
RA_OF_ASC_NODE = 152.6848
ARG_OF_PERICENTER = 213.5482
MEAN_ANOMALY   = 146.5203

EPHEMERIS_TYPE = 0
CLASSIFICATION_TYPE = U
NORAD_CAT_ID   = 66908
ELEMENT_SET_NO = 999
REV_AT_EPOCH   = 129
BSTAR          = .14713865E-2
MEAN_MOTION_DOT = .87912E-3
MEAN_MOTION_DDOT = 0

CCSDS_OMM_VERS = 2.0
CREATION_DATE  = 
ORIGINATOR     = 

OBJECT_NAME    = SILVERSAT
OBJECT_ID      = 1998-067XV
CENTER_NAME    = EARTH
REF_FRAME      = TEME
TIME_SYSTEM    = UTC
MEAN_ELEMENT_THEORY = SGP/SGP4

EPOCH          = 2025-12-10T17:29:49.371360
MEAN_MOTION    = 15.51224506
ECCENTRICITY   = .00046681
INCLINATION    = 51.6307
RA_OF_ASC_NODE = 152.3636
ARG_OF_PERICENTER = 216.2554
MEAN_ANOMALY   = 143.8119

EPHEMERIS_TYPE = 0
CLASSIFICATION_TYPE = U
NORAD_CAT_ID   = 66909
ELEMENT_SET_NO = 999
REV_AT_EPOCH   = 130
BSTAR          = .15305983E-2
MEAN_MOTION_DOT = .91869E-3
MEAN_MOTION_DDOT = 0

CCSDS_OMM_VERS = 2.0
CREATION_DATE  = 
ORIGINATOR     = 

OBJECT_NAME    = 1998-067XW
OBJECT_ID      = 1998-067XW
CENTER_NAME    = EARTH
REF_FRAME      = TEME
TIME_SYSTEM    = UTC
MEAN_ELEMENT_THEORY = SGP/SGP4

EPOCH          = 2025-12-10T11:16:54.563808
MEAN_MOTION    = 15.51350337
ECCENTRICITY   = .00055419
INCLINATION    = 51.6299
RA_OF_ASC_NODE = 153.6351
ARG_OF_PERICENTER = 197.1967
MEAN_ANOMALY   = 162.8836

EPHEMERIS_TYPE = 0
CLASSIFICATION_TYPE = U
NORAD_CAT_ID   = 66910
ELEMENT_SET_NO = 999
REV_AT_EPOCH   = 126
BSTAR          = .13818348E-2
MEAN_MOTION_DOT = .83191E-3
MEAN_MOTION_DDOT = 0

CCSDS_OMM_VERS = 2.0
CREATION_DATE  = 
ORIGINATOR     = 

OBJECT_NAME    = 1998-067XX
OBJECT_ID      = 1998-067XX
CENTER_NAME    = EARTH
REF_FRAME      = TEME
TIME_SYSTEM    = UTC
MEAN_ELEMENT_THEORY = SGP/SGP4

EPOCH          = 2025-12-11T04:16:32.481408
MEAN_MOTION    = 15.51664190
ECCENTRICITY   = .0005192
INCLINATION    = 51.6299
RA_OF_ASC_NODE = 150.1129
ARG_OF_PERICENTER = 201.0739
MEAN_ANOMALY   = 159.0037

EPHEMERIS_TYPE = 0
CLASSIFICATION_TYPE = U
NORAD_CAT_ID   = 66911
ELEMENT_SET_NO = 999
REV_AT_EPOCH   = 136
BSTAR          = .16096E-2
MEAN_MOTION_DOT = .98261E-3
MEAN_MOTION_DDOT = 0

CCSDS_OMM_VERS = 2.0
CREATION_DATE  = 
ORIGINATOR     = 

OBJECT_NAME    = 1998-067XY
OBJECT_ID      = 1998-067XY
CENTER_NAME    = EARTH
REF_FRAME      = TEME
TIME_SYSTEM    = UTC
MEAN_ELEMENT_THEORY = SGP/SGP4

EPOCH          = 2025-12-10T17:31:22.847520
MEAN_MOTION    = 15.50838333
ECCENTRICITY   = .00047912
INCLINATION    = 51.6309
RA_OF_ASC_NODE = 152.3712
ARG_OF_PERICENTER = 213.0974
MEAN_ANOMALY   = 146.9716

EPHEMERIS_TYPE = 0
CLASSIFICATION_TYPE = U
NORAD_CAT_ID   = 66912
ELEMENT_SET_NO = 999
REV_AT_EPOCH   = 129
BSTAR          = .11490073E-2
MEAN_MOTION_DOT = .67697E-3
MEAN_MOTION_DDOT = 0

CCSDS_OMM_VERS = 2.0
CREATION_DATE  = 
ORIGINATOR     = 

OBJECT_NAME    = 2025-284A
OBJECT_ID      = 2025-284A
CENTER_NAME    = EARTH
REF_FRAME      = TEME
TIME_SYSTEM    = UTC
MEAN_ELEMENT_THEORY = SGP/SGP4

EPOCH          = 2025-12-11T05:07:36.722208
MEAN_MOTION    = 15.18919324
ECCENTRICITY   = .001201
INCLINATION    = 80.4047
RA_OF_ASC_NODE = 131.6993
ARG_OF_PERICENTER = 209.2547
MEAN_ANOMALY   = 150.8009

EPHEMERIS_TYPE = 0
CLASSIFICATION_TYPE = U
NORAD_CAT_ID   = 66913
ELEMENT_SET_NO = 999
REV_AT_EPOCH   = 89
BSTAR          = .76013E-3
MEAN_MOTION_DOT = .15934E-3
MEAN_MOTION_DDOT = 0

CCSDS_OMM_VERS = 2.0
CREATION_DATE  = 
ORIGINATOR     = 

OBJECT_NAME    = 2025-284B
OBJECT_ID      = 2025-284B
CENTER_NAME    = EARTH
REF_FRAME      = TEME
TIME_SYSTEM    = UTC
MEAN_ELEMENT_THEORY = SGP/SGP4

EPOCH          = 2025-12-11T05:06:58.411584
MEAN_MOTION    = 15.18871742
ECCENTRICITY   = .0008259
INCLINATION    = 80.4056
RA_OF_ASC_NODE = 131.7006
ARG_OF_PERICENTER = 251.8131
MEAN_ANOMALY   = 108.2198

EPHEMERIS_TYPE = 0
CLASSIFICATION_TYPE = U
NORAD_CAT_ID   = 66914
ELEMENT_SET_NO = 999
REV_AT_EPOCH   = 89
BSTAR          = .7344E-3
MEAN_MOTION_DOT = .15357E-3
MEAN_MOTION_DDOT = 0

CCSDS_OMM_VERS = 2.0
CREATION_DATE  = 
ORIGINATOR     = 

OBJECT_NAME    = HULIANWANG DIGUI-105
OBJECT_ID      = 2025-285A
CENTER_NAME    = EARTH
REF_FRAME      = TEME
TIME_SYSTEM    = UTC
MEAN_ELEMENT_THEORY = SGP/SGP4

EPOCH          = 2025-12-11T05:00:27.272736
MEAN_MOTION    = 14.05467524
ECCENTRICITY   = .0008125
INCLINATION    = 50.0035
RA_OF_ASC_NODE = 123.5166
ARG_OF_PERICENTER = 277.5008
MEAN_ANOMALY   = 82.4974

EPHEMERIS_TYPE = 0
CLASSIFICATION_TYPE = U
NORAD_CAT_ID   = 66915
ELEMENT_SET_NO = 999
REV_AT_EPOCH   = 69
BSTAR          = .20268E-3
MEAN_MOTION_DOT = .179E-5
MEAN_MOTION_DDOT = 0

CCSDS_OMM_VERS = 2.0
CREATION_DATE  = 
ORIGINATOR     = 

OBJECT_NAME    = HULIANWANG DIGUI-106
OBJECT_ID      = 2025-285B
CENTER_NAME    = EARTH
REF_FRAME      = TEME
TIME_SYSTEM    = UTC
MEAN_ELEMENT_THEORY = SGP/SGP4

EPOCH          = 2025-12-11T05:00:12.919968
MEAN_MOTION    = 14.05513814
ECCENTRICITY   = .000696
INCLINATION    = 50.0046
RA_OF_ASC_NODE = 123.5170
ARG_OF_PERICENTER = 272.2639
MEAN_ANOMALY   = 87.7469

EPHEMERIS_TYPE = 0
CLASSIFICATION_TYPE = U
NORAD_CAT_ID   = 66916
ELEMENT_SET_NO = 999
REV_AT_EPOCH   = 69
BSTAR          = .19384E-3
MEAN_MOTION_DOT = .165E-5
MEAN_MOTION_DDOT = 0

CCSDS_OMM_VERS = 2.0
CREATION_DATE  = 
ORIGINATOR     = 

OBJECT_NAME    = HULIANWANG DIGUI-107
OBJECT_ID      = 2025-285C
CENTER_NAME    = EARTH
REF_FRAME      = TEME
TIME_SYSTEM    = UTC
MEAN_ELEMENT_THEORY = SGP/SGP4

EPOCH          = 2025-12-11T04:59:51.880704
MEAN_MOTION    = 14.05579308
ECCENTRICITY   = .0007571
INCLINATION    = 50.0009
RA_OF_ASC_NODE = 123.5125
ARG_OF_PERICENTER = 279.8924
MEAN_ANOMALY   = 80.1127

EPHEMERIS_TYPE = 0
CLASSIFICATION_TYPE = U
NORAD_CAT_ID   = 66917
ELEMENT_SET_NO = 999
REV_AT_EPOCH   = 69
BSTAR          = .19675E-3
MEAN_MOTION_DOT = .17E-5
MEAN_MOTION_DDOT = 0

CCSDS_OMM_VERS = 2.0
CREATION_DATE  = 
ORIGINATOR     = 

OBJECT_NAME    = HULIANWANG DIGUI-108
OBJECT_ID      = 2025-285D
CENTER_NAME    = EARTH
REF_FRAME      = TEME
TIME_SYSTEM    = UTC
MEAN_ELEMENT_THEORY = SGP/SGP4

EPOCH          = 2025-12-11T04:59:15.724896
MEAN_MOTION    = 14.05704466
ECCENTRICITY   = .0006468
INCLINATION    = 50.0043
RA_OF_ASC_NODE = 123.5120
ARG_OF_PERICENTER = 275.1488
MEAN_ANOMALY   = 84.8679

EPHEMERIS_TYPE = 0
CLASSIFICATION_TYPE = U
NORAD_CAT_ID   = 66918
ELEMENT_SET_NO = 999
REV_AT_EPOCH   = 69
BSTAR          = .19782E-3
MEAN_MOTION_DOT = .172E-5
MEAN_MOTION_DDOT = 0

CCSDS_OMM_VERS = 2.0
CREATION_DATE  = 
ORIGINATOR     = 

OBJECT_NAME    = HULIANWANG DIGUI-109
OBJECT_ID      = 2025-285E
CENTER_NAME    = EARTH
REF_FRAME      = TEME
TIME_SYSTEM    = UTC
MEAN_ELEMENT_THEORY = SGP/SGP4

EPOCH          = 2025-12-11T04:59:10.674816
MEAN_MOTION    = 14.05715181
ECCENTRICITY   = .0007833
INCLINATION    = 50.0054
RA_OF_ASC_NODE = 123.5150
ARG_OF_PERICENTER = 286.8271
MEAN_ANOMALY   = 73.1775

EPHEMERIS_TYPE = 0
CLASSIFICATION_TYPE = U
NORAD_CAT_ID   = 66919
ELEMENT_SET_NO = 999
REV_AT_EPOCH   = 69
BSTAR          = -.16698E-5
MEAN_MOTION_DOT = -.155E-5
MEAN_MOTION_DDOT = 0

